STARLINK-36439          
1 67624U 26020H   26043.13562428  .00333132  00000+0  15202-2 0  9997
2 67624  42.9981 297.4196 0001772 275.5273  84.5397 15.82075853  2053
STARLINK-36438          
1 67625U 26020J   26043.58335648  .00060752  00000+0  37419-3 0  9999
2 67625  42.9990 294.7436 0002198 219.0134 146.4789 15.76316230  3350
STARLINK-36436          
1 67626U 26020K   26043.13358132  .00338990  00000+0  15448-2 0  9993
2 67626  42.9978 297.4030 0001774 264.7712  95.2958 15.82090571  2054
STARLINK-36502          
1 67627U 26020L   26043.13431575  .00328387  00000+0  14998-2 0  9995
2 67627  42.9979 297.4087 0002327 273.8398  86.2207 15.82070090  2055
STARLINK-36532          
1 67628U 26020M   26043.58335648  .00005402  00000+0  28209-4 0  9991
2 67628  42.9983 294.6282 0002255 237.6997 174.1487 15.81986918  3355
STARLINK-36367          
1 67629U 26020N   26043.13284256  .00255939  00000+0  11803-2 0  9993
2 67629  42.9984 297.3969 0001912 266.0613  94.0040 15.82054273  2051
STARLINK-36416          
1 67630U 26020P   26043.58335648  .00119805  00000+0  73055-3 0  9995
2 67630  42.9991 294.7130 0002257 262.4717 115.4668 15.76296472  3350
STARLINK-36527          
1 67631U 26020Q   26043.58335648  .00080670  00000+0  38314-3 0  9992
2 67631  42.9987 294.6126 0001832 289.2974 128.7413 15.81955973  3359
STARLINK-36633          
1 67632U 26020R   26043.58335648  .00017406  00000+0  85142-4 0  9992
2 67632  42.9987 294.6023 0001886 282.1173 140.1119 15.81986322  3351
STARLINK-36637          
1 67633U 26020S   26043.58335648 -.00030816  00000+0 -18690-3 0  9998
2 67633  42.9991 294.6821 0002015 262.2670 128.1148 15.76368372  3350
STARLINK-36617          
1 67634U 26020T   26043.58335648 -.00037074  00000+0 -17426-3 0  9998
2 67634  42.9988 294.5838 0002058 249.5640 180.0105 15.82016375  3356
STARLINK-36627          
1 67635U 26020U   26043.58335648  .00068003  00000+0  41788-3 0  9991
2 67635  42.9993 294.5880 0002207 270.4231 157.2706 15.76330564  3350
