CCSDS_OMM_VERS = 2.0
CREATION_DATE  = 
ORIGINATOR     = 

OBJECT_NAME    = STARLINK-36439
OBJECT_ID      = 2026-020H
CENTER_NAME    = EARTH
REF_FRAME      = TEME
TIME_SYSTEM    = UTC
MEAN_ELEMENT_THEORY = SGP/SGP4

EPOCH          = 2026-02-12T03:15:17.937792
MEAN_MOTION    = 15.82075853
ECCENTRICITY   = .00017723
INCLINATION    = 42.9981
RA_OF_ASC_NODE = 297.4196
ARG_OF_PERICENTER = 275.5273
MEAN_ANOMALY   = 84.5397

EPHEMERIS_TYPE = 0
CLASSIFICATION_TYPE = U
NORAD_CAT_ID   = 67624
ELEMENT_SET_NO = 999
REV_AT_EPOCH   = 205
BSTAR          = .15202342E-2
MEAN_MOTION_DOT = .333132E-2
MEAN_MOTION_DDOT = 0

CCSDS_OMM_VERS = 2.0
CREATION_DATE  = 
ORIGINATOR     = 

OBJECT_NAME    = STARLINK-36438
OBJECT_ID      = 2026-020J
CENTER_NAME    = EARTH
REF_FRAME      = TEME
TIME_SYSTEM    = UTC
MEAN_ELEMENT_THEORY = SGP/SGP4

EPOCH          = 2026-02-12T14:00:01.999872
MEAN_MOTION    = 15.76316230
ECCENTRICITY   = .00021985
INCLINATION    = 42.9990
RA_OF_ASC_NODE = 294.7436
ARG_OF_PERICENTER = 219.0134
MEAN_ANOMALY   = 146.4789

EPHEMERIS_TYPE = 0
CLASSIFICATION_TYPE = U
NORAD_CAT_ID   = 67625
ELEMENT_SET_NO = 999
REV_AT_EPOCH   = 335
BSTAR          = .37419346E-3
MEAN_MOTION_DOT = .60752E-3
MEAN_MOTION_DDOT = 0

CCSDS_OMM_VERS = 2.0
CREATION_DATE  = 
ORIGINATOR     = 

OBJECT_NAME    = STARLINK-36436
OBJECT_ID      = 2026-020K
CENTER_NAME    = EARTH
REF_FRAME      = TEME
TIME_SYSTEM    = UTC
MEAN_ELEMENT_THEORY = SGP/SGP4

EPOCH          = 2026-02-12T03:12:21.426048
MEAN_MOTION    = 15.82090571
ECCENTRICITY   = .00017745
INCLINATION    = 42.9978
RA_OF_ASC_NODE = 297.4030
ARG_OF_PERICENTER = 264.7712
MEAN_ANOMALY   = 95.2958

EPHEMERIS_TYPE = 0
CLASSIFICATION_TYPE = U
NORAD_CAT_ID   = 67626
ELEMENT_SET_NO = 999
REV_AT_EPOCH   = 205
BSTAR          = .15448039E-2
MEAN_MOTION_DOT = .33899E-2
MEAN_MOTION_DDOT = 0

CCSDS_OMM_VERS = 2.0
CREATION_DATE  = 
ORIGINATOR     = 

OBJECT_NAME    = STARLINK-36502
OBJECT_ID      = 2026-020L
CENTER_NAME    = EARTH
REF_FRAME      = TEME
TIME_SYSTEM    = UTC
MEAN_ELEMENT_THEORY = SGP/SGP4

EPOCH          = 2026-02-12T03:13:24.880800
MEAN_MOTION    = 15.82070090
ECCENTRICITY   = .00023277
INCLINATION    = 42.9979
RA_OF_ASC_NODE = 297.4087
ARG_OF_PERICENTER = 273.8398
MEAN_ANOMALY   = 86.2207

EPHEMERIS_TYPE = 0
CLASSIFICATION_TYPE = U
NORAD_CAT_ID   = 67627
ELEMENT_SET_NO = 999
REV_AT_EPOCH   = 205
BSTAR          = .14998246E-2
MEAN_MOTION_DOT = .328387E-2
MEAN_MOTION_DDOT = 0

CCSDS_OMM_VERS = 2.0
CREATION_DATE  = 
ORIGINATOR     = 

OBJECT_NAME    = STARLINK-36532
OBJECT_ID      = 2026-020M
CENTER_NAME    = EARTH
REF_FRAME      = TEME
TIME_SYSTEM    = UTC
MEAN_ELEMENT_THEORY = SGP/SGP4

EPOCH          = 2026-02-12T14:00:01.999872
MEAN_MOTION    = 15.81986918
ECCENTRICITY   = .00022551
INCLINATION    = 42.9983
RA_OF_ASC_NODE = 294.6282
ARG_OF_PERICENTER = 237.6997
MEAN_ANOMALY   = 174.1487

EPHEMERIS_TYPE = 0
CLASSIFICATION_TYPE = U
NORAD_CAT_ID   = 67628
ELEMENT_SET_NO = 999
REV_AT_EPOCH   = 335
BSTAR          = .28209222E-4
MEAN_MOTION_DOT = .5402E-4
MEAN_MOTION_DDOT = 0

CCSDS_OMM_VERS = 2.0
CREATION_DATE  = 
ORIGINATOR     = 

OBJECT_NAME    = STARLINK-36367
OBJECT_ID      = 2026-020N
CENTER_NAME    = EARTH
REF_FRAME      = TEME
TIME_SYSTEM    = UTC
MEAN_ELEMENT_THEORY = SGP/SGP4

EPOCH          = 2026-02-12T03:11:17.597184
MEAN_MOTION    = 15.82054273
ECCENTRICITY   = .00019122
INCLINATION    = 42.9984
RA_OF_ASC_NODE = 297.3969
ARG_OF_PERICENTER = 266.0613
MEAN_ANOMALY   = 94.0040

EPHEMERIS_TYPE = 0
CLASSIFICATION_TYPE = U
NORAD_CAT_ID   = 67629
ELEMENT_SET_NO = 999
REV_AT_EPOCH   = 205
BSTAR          = .11802847E-2
MEAN_MOTION_DOT = .255939E-2
MEAN_MOTION_DDOT = 0

CCSDS_OMM_VERS = 2.0
CREATION_DATE  = 
ORIGINATOR     = 

OBJECT_NAME    = STARLINK-36416
OBJECT_ID      = 2026-020P
CENTER_NAME    = EARTH
REF_FRAME      = TEME
TIME_SYSTEM    = UTC
MEAN_ELEMENT_THEORY = SGP/SGP4

EPOCH          = 2026-02-12T14:00:01.999872
MEAN_MOTION    = 15.76296472
ECCENTRICITY   = .00022574
INCLINATION    = 42.9991
RA_OF_ASC_NODE = 294.7130
ARG_OF_PERICENTER = 262.4717
MEAN_ANOMALY   = 115.4668

EPHEMERIS_TYPE = 0
CLASSIFICATION_TYPE = U
NORAD_CAT_ID   = 67630
ELEMENT_SET_NO = 999
REV_AT_EPOCH   = 335
BSTAR          = .73055143E-3
MEAN_MOTION_DOT = .119805E-2
MEAN_MOTION_DDOT = 0

CCSDS_OMM_VERS = 2.0
CREATION_DATE  = 
ORIGINATOR     = 

OBJECT_NAME    = STARLINK-36527
OBJECT_ID      = 2026-020Q
CENTER_NAME    = EARTH
REF_FRAME      = TEME
TIME_SYSTEM    = UTC
MEAN_ELEMENT_THEORY = SGP/SGP4

EPOCH          = 2026-02-12T14:00:01.999872
MEAN_MOTION    = 15.81955973
ECCENTRICITY   = .00018326
INCLINATION    = 42.9987
RA_OF_ASC_NODE = 294.6126
ARG_OF_PERICENTER = 289.2974
MEAN_ANOMALY   = 128.7413

EPHEMERIS_TYPE = 0
CLASSIFICATION_TYPE = U
NORAD_CAT_ID   = 67631
ELEMENT_SET_NO = 999
REV_AT_EPOCH   = 335
BSTAR          = .38313528E-3
MEAN_MOTION_DOT = .8067E-3
MEAN_MOTION_DDOT = 0

CCSDS_OMM_VERS = 2.0
CREATION_DATE  = 
ORIGINATOR     = 

OBJECT_NAME    = STARLINK-36633
OBJECT_ID      = 2026-020R
CENTER_NAME    = EARTH
REF_FRAME      = TEME
TIME_SYSTEM    = UTC
MEAN_ELEMENT_THEORY = SGP/SGP4

EPOCH          = 2026-02-12T14:00:01.999872
MEAN_MOTION    = 15.81986322
ECCENTRICITY   = .00018862
INCLINATION    = 42.9987
RA_OF_ASC_NODE = 294.6023
ARG_OF_PERICENTER = 282.1173
MEAN_ANOMALY   = 140.1119

EPHEMERIS_TYPE = 0
CLASSIFICATION_TYPE = U
NORAD_CAT_ID   = 67632
ELEMENT_SET_NO = 999
REV_AT_EPOCH   = 335
BSTAR          = .85142282E-4
MEAN_MOTION_DOT = .17406E-3
MEAN_MOTION_DDOT = 0

CCSDS_OMM_VERS = 2.0
CREATION_DATE  = 
ORIGINATOR     = 

OBJECT_NAME    = STARLINK-36637
OBJECT_ID      = 2026-020S
CENTER_NAME    = EARTH
REF_FRAME      = TEME
TIME_SYSTEM    = UTC
MEAN_ELEMENT_THEORY = SGP/SGP4

EPOCH          = 2026-02-12T14:00:01.999872
MEAN_MOTION    = 15.76368372
ECCENTRICITY   = .00020152
INCLINATION    = 42.9991
RA_OF_ASC_NODE = 294.6821
ARG_OF_PERICENTER = 262.2670
MEAN_ANOMALY   = 128.1148

EPHEMERIS_TYPE = 0
CLASSIFICATION_TYPE = U
NORAD_CAT_ID   = 67633
ELEMENT_SET_NO = 999
REV_AT_EPOCH   = 335
BSTAR          = -.18689555E-3
MEAN_MOTION_DOT = -.30816E-3
MEAN_MOTION_DDOT = 0

CCSDS_OMM_VERS = 2.0
CREATION_DATE  = 
ORIGINATOR     = 

OBJECT_NAME    = STARLINK-36617
OBJECT_ID      = 2026-020T
CENTER_NAME    = EARTH
REF_FRAME      = TEME
TIME_SYSTEM    = UTC
MEAN_ELEMENT_THEORY = SGP/SGP4

EPOCH          = 2026-02-12T14:00:01.999872
MEAN_MOTION    = 15.82016375
ECCENTRICITY   = .00020581
INCLINATION    = 42.9988
RA_OF_ASC_NODE = 294.5838
ARG_OF_PERICENTER = 249.5640
MEAN_ANOMALY   = 180.0105

EPHEMERIS_TYPE = 0
CLASSIFICATION_TYPE = U
NORAD_CAT_ID   = 67634
ELEMENT_SET_NO = 999
REV_AT_EPOCH   = 335
BSTAR          = -.17426184E-3
MEAN_MOTION_DOT = -.37074E-3
MEAN_MOTION_DDOT = 0

CCSDS_OMM_VERS = 2.0
CREATION_DATE  = 
ORIGINATOR     = 

OBJECT_NAME    = STARLINK-36627
OBJECT_ID      = 2026-020U
CENTER_NAME    = EARTH
REF_FRAME      = TEME
TIME_SYSTEM    = UTC
MEAN_ELEMENT_THEORY = SGP/SGP4

EPOCH          = 2026-02-12T14:00:01.999872
MEAN_MOTION    = 15.76330564
ECCENTRICITY   = .00022077
INCLINATION    = 42.9993
RA_OF_ASC_NODE = 294.5880
ARG_OF_PERICENTER = 270.4231
MEAN_ANOMALY   = 157.2706

EPHEMERIS_TYPE = 0
CLASSIFICATION_TYPE = U
NORAD_CAT_ID   = 67635
ELEMENT_SET_NO = 999
REV_AT_EPOCH   = 335
BSTAR          = .41788142E-3
MEAN_MOTION_DOT = .68003E-3
MEAN_MOTION_DDOT = 0

